[{"OBJECT_NAME":"LEMUR-2-PETERG","OBJECT_ID":"2017-042S","EPOCH":"2026-03-09T11:34:35.656032","MEAN_MOTION":15.29611459,"ECCENTRICITY":0.00037,"INCLINATION":97.398,"RA_OF_ASC_NODE":253.6596,"ARG_OF_PERICENTER":341.6938,"MEAN_ANOMALY":18.4169,"EPHEMERIS_TYPE":0,"CLASSIFICATION_TYPE":"U","NORAD_CAT_ID":42841,"ELEMENT_SET_NO":999,"REV_AT_EPOCH":47317,"BSTAR":0.00081076471,"MEAN_MOTION_DOT":0.0002324,"MEAN_MOTION_DDOT":0},{"OBJECT_NAME":"STARLINK-33677","OBJECT_ID":"2025-065M","EPOCH":"2026-03-09T10:44:24.765504","MEAN_MOTION":15.27579841,"ECCENTRICITY":0.00019743,"INCLINATION":43.0006,"RA_OF_ASC_NODE":108.3747,"ARG_OF_PERICENTER":254.2981,"MEAN_ANOMALY":105.7653,"EPHEMERIS_TYPE":0,"CLASSIFICATION_TYPE":"U","NORAD_CAT_ID":63410,"ELEMENT_SET_NO":999,"REV_AT_EPOCH":5280,"BSTAR":0.00081327976,"MEAN_MOTION_DOT":0.00022185,"MEAN_MOTION_DDOT":0}]
